ONEWEB-0716             
1 55177U 23004AP  25359.60694248 -.00000033  00000+0 -11815-3 0  9993
2 55177  87.9097  40.3830 0001914  90.9211 269.2140 13.17650268144723
ONEWEB-0717             
1 55178U 23004AQ  25359.66599681 -.00000012  00000+0 -64526-4 0  9990
2 55178  87.9108  40.3429 0001868 120.1974 239.9343 13.17650787144782
ONEWEB-0719             
1 55179U 23004AR  25359.52426841  .00000008  00000+0 -13491-4 0  9992
2 55179  87.9107  40.3537 0002015  95.7251 264.4110 13.17648897144719
ONEWEB-0530             
1 55796U 23029A   25359.30437402  .00000100  00000+0  21520-3 0  9998
2 55796  87.9210 309.1628 0001994  94.5131 265.6230 13.20771089138190
ONEWEB-0534             
1 55797U 23029B   25359.59478527  .00000095  00000+0  20154-3 0  9998
2 55797  87.9213 309.1053 0001909  77.1771 282.9576 13.20770283138234
ONEWEB-0556             
1 55798U 23029C   25359.60108476  .00000114  00000+0  24904-3 0  9993
2 55798  87.9214 309.1044 0002763  79.5505 280.5940 13.20773637138231
ONEWEB-0562             
1 55799U 23029D   25359.36120403  .00000155  00000+0  34913-3 0  9997
2 55799  87.9208 309.1341 0002449  96.8825 263.2587 13.20772366138203
ONEWEB-0563             
1 55800U 23029E   25358.82459189  .00000126  00000+0  27711-3 0  9992
2 55800  87.9214 309.2690 0002003  74.2250 285.9104 13.20769769138129
